{"type": "FeatureCollection", "features": [ {"type": "Feature", "properties": {"norad_id": 30845, "name": "FENGYUN 1C DEB", "group": "fengyun-1c-debris", "lat": -29.382777455737443, "lon": -13.328681221126907, "alt_km": 876.6358579427942, "timestamp": "2025-12-06T14:35:37.405528+00:00", "meta": {"OBJECT_NAME": "FENGYUN 1C DEB", "OBJECT_ID": "1999-025AWF", "EPOCH": "2025-12-06T06:04:31.842048", "MEAN_MOTION": 13.76850229, "ECCENTRICITY": 0.01920769, "INCLINATION": 98.3787, "RA_OF_ASC_NODE": 341.5982, "ARG_OF_PERICENTER": 288.1534, "MEAN_ANOMALY": 82.4457, "EPHEMERIS_TYPE": 0, "CLASSIFICATION_TYPE": "U", "NORAD_CAT_ID": 30845, "ELEMENT_SET_NO": 999, "REV_AT_EPOCH": 94154, "BSTAR": 0.00062831447, "MEAN_MOTION_DOT": 6.7e-06, "MEAN_MOTION_DDOT": 0}, "tle": {"line1": "1 30845U 99025AWF 25340.25314632  .00000670  00000+0  62831-3 0  9990", "line2": "2 30845  98.3787 341.5982 0192076 288.1534  82.4457 13.76850229941548"}}, "geometry": {"type": "Point", "coordinates": [-13.328681221126907, -29.382777455737443]}}, {"type": "Feature", "properties": {"norad_id": 30846, "name": "FENGYUN 1C DEB", "group": "fengyun-1c-debris", "lat": -19.652050916735124, "lon": -30.100728750454316, "alt_km": 793.5235395538257, "timestamp": "2025-12-06T14:35:37.405540+00:00", "meta": {"OBJECT_NAME": "FENGYUN 1C DEB", "OBJECT_ID": "1999-025AWG", "EPOCH": "2025-12-06T06:10:44.880960", "MEAN_MOTION": 14.41492083, "ECCENTRICITY": 0.00541519, "INCLINATION": 99.3208, "RA_OF_ASC_NODE": 152.8794, "ARG_OF_PERICENTER": 355.4984, "MEAN_ANOMALY": 186.169, "EPHEMERIS_TYPE": 0, "CLASSIFICATION_TYPE": "U", "NORAD_CAT_ID": 30846, "ELEMENT_SET_NO": 999, "REV_AT_EPOCH": 97836, "BSTAR": 0.0015229401, "MEAN_MOTION_DOT": 4.983e-05, "MEAN_MOTION_DDOT": 0}, "tle": {"line1": "1 30846U 99025AWG 25340.25746390  .00004983  00000+0  15229-2 0  9990", "line2": "2 30846  99.3208 152.8794 0054151 355.4984 186.1690 14.41492083978364"}}, "geometry": {"type": "Point", "coordinates": [-30.100728750454316, -19.652050916735124]}}, {"type": "Feature", "properties": {"norad_id": 30847, "name": "FENGYUN 1C DEB", "group": "fengyun-1c-debris", "lat": 80.4605451699056, "lon": 27.006521763845903, "alt_km": 842.4646115947553, "timestamp": "2025-12-06T14:35:37.405550+00:00", "meta": {"OBJECT_NAME": "FENGYUN 1C DEB", "OBJECT_ID": "1999-025AWH", "EPOCH": "2025-12-05T21:56:02.276736", "MEAN_MOTION": 14.16944131, "ECCENTRICITY": 0.0065301, "INCLINATION": 98.7316, "RA_OF_ASC_NODE": 140.1892, "ARG_OF_PERICENTER": 347.9001, "MEAN_ANOMALY": 166.3098, "EPHEMERIS_TYPE": 0, "CLASSIFICATION_TYPE": "U", "NORAD_CAT_ID": 30847, "ELEMENT_SET_NO": 999, "REV_AT_EPOCH": 95958, "BSTAR": 0.0030782808, "MEAN_MOTION_DOT": 6.271e-05, "MEAN_MOTION_DDOT": 0}, "tle": {"line1": "1 30847U 99025AWH 25339.91391524  .00006271  00000+0  30783-2 0  9991", "line2": "2 30847  98.7316 140.1892 0065301 347.9001 166.3098 14.16944131959585"}}, "geometry": {"type": "Point", "coordinates": [27.006521763845903, 80.4605451699056]}}, {"type": "Feature", "properties": {"norad_id": 30848, "name": "FENGYUN 1C DEB", "group": "fengyun-1c-debris", "lat": 11.29894355139118, "lon": -3.0246834981537254, "alt_km": 809.733249080009, "timestamp": "2025-12-06T14:35:37.405560+00:00", "meta": {"OBJECT_NAME": "FENGYUN 1C DEB", "OBJECT_ID": "1999-025AWJ", "EPOCH": "2025-12-05T19:23:45.473280", "MEAN_MOTION": 14.34416414, "ECCENTRICITY": 0.0044082, "INCLINATION": 99.0597, "RA_OF_ASC_NODE": 174.3104, "ARG_OF_PERICENTER": 355.8356, "MEAN_ANOMALY": 4.2454, "EPHEMERIS_TYPE": 0, "CLASSIFICATION_TYPE": "U", "NORAD_CAT_ID": 30848, "ELEMENT_SET_NO": 999, "REV_AT_EPOCH": 97207, "BSTAR": 0.0022137587, "MEAN_MOTION_DOT": 6.257e-05, "MEAN_MOTION_DDOT": 0}, "tle": {"line1": "1 30848U 99025AWJ 25339.80816520  .00006257  00000+0  22138-2 0  9997", "line2": "2 30848  99.0597 174.3104 0044082 355.8356   4.2454 14.34416414972073"}}, "geometry": {"type": "Point", "coordinates": [-3.0246834981537254, 11.29894355139118]}}, {"type": "Feature", "properties": {"norad_id": 30849, "name": "FENGYUN 1C DEB", "group": "fengyun-1c-debris", "lat": -24.703399847310337, "lon": -143.72048260948202, "alt_km": 869.8344448139578, "timestamp": "2025-12-06T14:35:37.405570+00:00", "meta": {"OBJECT_NAME": "FENGYUN 1C DEB", "OBJECT_ID": "1999-025AWK", "EPOCH": "2025-12-03T10:04:06.299904", "MEAN_MOTION": 14.18776336, "ECCENTRICITY": 0.00484606, "INCLINATION": 99.0493, "RA_OF_ASC_NODE": 37.2311, "ARG_OF_PERICENTER": 33.5653, "MEAN_ANOMALY": 94.4513, "EPHEMERIS_TYPE": 0, "CLASSIFICATION_TYPE": "U", "NORAD_CAT_ID": 30849, "ELEMENT_SET_NO": 999, "REV_AT_EPOCH": 96240, "BSTAR": 0.0018491535, "MEAN_MOTION_DOT": 3.843e-05, "MEAN_MOTION_DDOT": 0}, "tle": {"line1": "1 30849U 99025AWK 25337.41951736  .00003843  00000+0  18492-2 0  9998", "line2": "2 30849  99.0493  37.2311 0048460  33.5653  94.4513 14.18776336962407"}}, "geometry": {"type": "Point", "coordinates": [-143.72048260948202, -24.703399847310337]}}, {"type": "Feature", "properties": {"norad_id": 30850, "name": "FENGYUN 1C DEB", "group": "fengyun-1c-debris", "lat": -12.344879909921513, "lon": 24.603828827710963, "alt_km": 769.856021711138, "timestamp": "2025-12-06T14:35:37.405580+00:00", "meta": {"OBJECT_NAME": "FENGYUN 1C DEB", "OBJECT_ID": "1999-025AWL", "EPOCH": "2025-12-05T14:12:28.865664", "MEAN_MOTION": 14.16200169, "ECCENTRICITY": 0.01096938, "INCLINATION": 98.3944, "RA_OF_ASC_NODE": 205.4976, "ARG_OF_PERICENTER": 218.856, "MEAN_ANOMALY": 196.6555, "EPHEMERIS_TYPE": 0, "CLASSIFICATION_TYPE": "U", "NORAD_CAT_ID": 30850, "ELEMENT_SET_NO": 999, "REV_AT_EPOCH": 95697, "BSTAR": 0.0038072269, "MEAN_MOTION_DOT": 7.958e-05, "MEAN_MOTION_DDOT": 0}, "tle": {"line1": "1 30850U 99025AWL 25339.59200076  .00007958  00000+0  38072-2 0  9992", "line2": "2 30850  98.3944 205.4976 0109693 218.8560 196.6555 14.16200169956979"}}, "geometry": {"type": "Point", "coordinates": [24.603828827710963, -12.344879909921513]}}, {"type": "Feature", "properties": {"norad_id": 30852, "name": "FENGYUN 1C DEB", "group": "fengyun-1c-debris", "lat": -49.67004899729335, "lon": 8.96787288332572, "alt_km": 843.400326189806, "timestamp": "2025-12-06T14:35:37.405591+00:00", "meta": {"OBJECT_NAME": "FENGYUN 1C DEB", "OBJECT_ID": "1999-025AWN", "EPOCH": "2025-12-05T11:35:17.301696", "MEAN_MOTION": 14.10265487, "ECCENTRICITY": 0.00556501, "INCLINATION": 98.7341, "RA_OF_ASC_NODE": 357.4426, "ARG_OF_PERICENTER": 255.4514, "MEAN_ANOMALY": 104.0481, "EPHEMERIS_TYPE": 0, "CLASSIFICATION_TYPE": "U", "NORAD_CAT_ID": 30852, "ELEMENT_SET_NO": 999, "REV_AT_EPOCH": 96280, "BSTAR": 0.0008251474, "MEAN_MOTION_DOT": 1.441e-05, "MEAN_MOTION_DDOT": 0}, "tle": {"line1": "1 30852U 99025AWN 25339.48283914  .00001441  00000+0  82515-3 0  9997", "line2": "2 30852  98.7341 357.4426 0055650 255.4514 104.0481 14.10265487962801"}}, "geometry": {"type": "Point", "coordinates": [8.96787288332572, -49.67004899729335]}}, {"type": "Feature", "properties": {"norad_id": 30856, "name": "FENGYUN 1C DEB", "group": "fengyun-1c-debris", "lat": 33.97133151383495, "lon": 160.02183332145526, "alt_km": 783.3949763032915, "timestamp": "2025-12-06T14:35:37.405601+00:00", "meta": {"OBJECT_NAME": "FENGYUN 1C DEB", "OBJECT_ID": "1999-025AWS", "EPOCH": "2025-12-06T00:11:43.147392", "MEAN_MOTION": 14.45786274, "ECCENTRICITY": 0.0089241, "INCLINATION": 98.1982, "RA_OF_ASC_NODE": 165.0162, "ARG_OF_PERICENTER": 259.2143, "MEAN_ANOMALY": 253.7897, "EPHEMERIS_TYPE": 0, "CLASSIFICATION_TYPE": "U", "NORAD_CAT_ID": 30856, "ELEMENT_SET_NO": 999, "REV_AT_EPOCH": 96428, "BSTAR": 0.0075622798, "MEAN_MOTION_DOT": 0.00028236, "MEAN_MOTION_DDOT": 0}, "tle": {"line1": "1 30856U 99025AWS 25340.00813828  .00028236  00000+0  75623-2 0  9996", "line2": "2 30856  98.1982 165.0162 0089241 259.2143 253.7897 14.45786274964280"}}, "geometry": {"type": "Point", "coordinates": [160.02183332145526, 33.97133151383495]}}, {"type": "Feature", "properties": {"norad_id": 30857, "name": "FENGYUN 1C DEB", "group": "fengyun-1c-debris", "lat": 70.16490655353219, "lon": 175.9469343294754, "alt_km": 743.4102406616421, "timestamp": "2025-12-06T14:35:37.405611+00:00", "meta": {"OBJECT_NAME": "FENGYUN 1C DEB", "OBJECT_ID": "1999-025AWT", "EPOCH": "2025-11-30T10:47:49.835040", "MEAN_MOTION": 14.5075264, "ECCENTRICITY": 0.0044105, "INCLINATION": 98.9754, "RA_OF_ASC_NODE": 323.3958, "ARG_OF_PERICENTER": 331.9164, "MEAN_ANOMALY": 27.965, "EPHEMERIS_TYPE": 0, "CLASSIFICATION_TYPE": "U", "NORAD_CAT_ID": 30857, "ELEMENT_SET_NO": 999, "REV_AT_EPOCH": 96545, "BSTAR": 0.0067744434, "MEAN_MOTION_DOT": 0.00027044, "MEAN_MOTION_DDOT": 0}, "tle": {"line1": "1 30857U 99025AWT 25334.44988235  .00027044  00000+0  67744-2 0  9994", "line2": "2 30857  98.9754 323.3958 0044105 331.9164  27.9650 14.50752640965453"}}, "geometry": {"type": "Point", "coordinates": [175.9469343294754, 70.16490655353219]}}, {"type": "Feature", "properties": {"norad_id": 30858, "name": "FENGYUN 1C DEB", "group": "fengyun-1c-debris", "lat": 50.66855818128862, "lon": -130.80473335405495, "alt_km": 806.0056259655248, "timestamp": "2025-12-06T14:35:37.405621+00:00", "meta": {"OBJECT_NAME": "FENGYUN 1C DEB", "OBJECT_ID": "1999-025AWU", "EPOCH": "2025-12-06T02:16:24.216672", "MEAN_MOTION": 14.17764583, "ECCENTRICITY": 0.00308076, "INCLINATION": 98.8, "RA_OF_ASC_NODE": 37.7896, "ARG_OF_PERICENTER": 128.2729, "MEAN_ANOMALY": 261.5085, "EPHEMERIS_TYPE": 0, "CLASSIFICATION_TYPE": "U", "NORAD_CAT_ID": 30858, "ELEMENT_SET_NO": 999, "REV_AT_EPOCH": 96886, "BSTAR": 0.00065152452, "MEAN_MOTION_DOT": 1.291e-05, "MEAN_MOTION_DDOT": 0}, "tle": {"line1": "1 30858U 99025AWU 25340.09472473  .00001291  00000+0  65152-3 0  9993", "line2": "2 30858  98.8000  37.7896 0030807 128.2729 261.5085 14.17764583968860"}}, "geometry": {"type": "Point", "coordinates": [-130.80473335405495, 50.66855818128862]}}]}